PATHFINDER1
1 41787U 16059E   18094.35234178  .00000020  00000-0  13260-4 0  9991
2 41787  98.1250 157.6646 0030213 327.1638  32.7685 14.63588503 81179
